{
  "links" : {
    "next" : "https://api.nasa.gov/neo/rest/v1/feed?start_date=1998-07-09&end_date=1998-07-09&detailed=true&api_key=t0TVs3DtDT2H8Oy2Zy8m2eVrNsAVKAexjcZXUckd",
    "prev" : "https://api.nasa.gov/neo/rest/v1/feed?start_date=1998-07-07&end_date=1998-07-07&detailed=true&api_key=t0TVs3DtDT2H8Oy2Zy8m2eVrNsAVKAexjcZXUckd",
    "self" : "https://api.nasa.gov/neo/rest/v1/feed?start_date=1998-07-08&end_date=1998-07-08&detailed=true&api_key=t0TVs3DtDT2H8Oy2Zy8m2eVrNsAVKAexjcZXUckd"
  },
  "element_count" : 2,
  "near_earth_objects" : {
    "1998-07-08" : [ {
      "links" : {
        "self" : "https://api.nasa.gov/neo/rest/v1/neo/2311044?api_key=t0TVs3DtDT2H8Oy2Zy8m2eVrNsAVKAexjcZXUckd"
      },
      "neo_reference_id" : "2311044",
      "name" : "311044 (2004 BB103)",
      "nasa_jpl_url" : "http://ssd.jpl.nasa.gov/sbdb.cgi?sstr=2311044",
      "absolute_magnitude_h" : 17.1,
      "estimated_diameter" : {
        "kilometers" : {
          "estimated_diameter_min" : 1.0105434154,
          "estimated_diameter_max" : 2.2596437711
        },
        "meters" : {
          "estimated_diameter_min" : 1010.5434154201,
          "estimated_diameter_max" : 2259.643771094
        },
        "miles" : {
          "estimated_diameter_min" : 0.6279223726,
          "estimated_diameter_max" : 1.4040771097
        },
        "feet" : {
          "estimated_diameter_min" : 3315.4312590467,
          "estimated_diameter_max" : 7413.5296699562
        }
      },
      "is_potentially_hazardous_asteroid" : true,
      "close_approach_data" : [ {
        "close_approach_date" : "1998-07-08",
        "epoch_date_close_approach" : 899881200000,
        "relative_velocity" : {
          "kilometers_per_second" : "29.2314971128",
          "kilometers_per_hour" : "105233.3896059479",
          "miles_per_hour" : "65387.9358915402"
        },
        "miss_distance" : {
          "astronomical" : "0.3691091017",
          "lunar" : "143.5834350586",
          "kilometers" : "55217936",
          "miles" : "34310836"
        },
        "orbiting_body" : "Earth"
      } ],
      "orbital_data" : {
        "orbit_id" : "34",
        "orbit_determination_date" : "2017-04-06 09:23:54",
        "orbit_uncertainty" : "0",
        "minimum_orbit_intersection" : ".0336834",
        "jupiter_tisserand_invariant" : "3.260",
        "epoch_osculation" : "2458000.5",
        "eccentricity" : ".6219028745031229",
        "semi_major_axis" : "1.907313014184",
        "inclination" : "55.86411647462925",
        "ascending_node_longitude" : "271.1138421534065",
        "orbital_period" : "962.1247462716162",
        "perihelion_distance" : ".7211495680857549",
        "perihelion_argument" : "71.49263238704869",
        "aphelion_distance" : "3.093476460282246",
        "perihelion_time" : "2457788.635904795110",
        "mean_anomaly" : "79.27358127864666",
        "mean_motion" : ".3741718539046587",
        "equinox" : "J2000"
      }
    }, {
      "links" : {
        "self" : "https://api.nasa.gov/neo/rest/v1/neo/3754314?api_key=t0TVs3DtDT2H8Oy2Zy8m2eVrNsAVKAexjcZXUckd"
      },
      "neo_reference_id" : "3754314",
      "name" : "(2016 LE51)",
      "nasa_jpl_url" : "http://ssd.jpl.nasa.gov/sbdb.cgi?sstr=3754314",
      "absolute_magnitude_h" : 19.8,
      "estimated_diameter" : {
        "kilometers" : {
          "estimated_diameter_min" : 0.2914439045,
          "estimated_diameter_max" : 0.6516883822
        },
        "meters" : {
          "estimated_diameter_min" : 291.4439045349,
          "estimated_diameter_max" : 651.6883821679
        },
        "miles" : {
          "estimated_diameter_min" : 0.1810947904,
          "estimated_diameter_max" : 0.4049402617
        },
        "feet" : {
          "estimated_diameter_min" : 956.1808197541,
          "estimated_diameter_max" : 2138.0853117517
        }
      },
      "is_potentially_hazardous_asteroid" : false,
      "close_approach_data" : [ {
        "close_approach_date" : "1998-07-08",
        "epoch_date_close_approach" : 899881200000,
        "relative_velocity" : {
          "kilometers_per_second" : "33.831660781",
          "kilometers_per_hour" : "121793.9788117523",
          "miles_per_hour" : "75678.0420011135"
        },
        "miss_distance" : {
          "astronomical" : "0.4755555318",
          "lunar" : "184.991104126",
          "kilometers" : "71142096",
          "miles" : "44205648"
        },
        "orbiting_body" : "Earth"
      } ],
      "orbital_data" : {
        "orbit_id" : "11",
        "orbit_determination_date" : "2017-07-06 06:17:49",
        "orbit_uncertainty" : "3",
        "minimum_orbit_intersection" : ".295139",
        "jupiter_tisserand_invariant" : "5.340",
        "epoch_osculation" : "2458000.5",
        "eccentricity" : ".6614421323568364",
        "semi_major_axis" : "1.095617509186285",
        "inclination" : "30.93296512715471",
        "ascending_node_longitude" : "91.88401782334745",
        "orbital_period" : "418.8773458963619",
        "perihelion_distance" : ".3709299276626228",
        "perihelion_argument" : "342.8039038265227",
        "aphelion_distance" : "1.820305090709947",
        "perihelion_time" : "2458174.262504801857",
        "mean_anomaly" : "210.66153053752",
        "mean_motion" : ".8594401285408038",
        "equinox" : "J2000"
      }
    } ]
  }
}